*******************************************************************************
Ephemeris / WWW_USER Mon Mar 24 07:47:50 2025 Pasadena, USA      / Horizons    
*******************************************************************************
Target body name: (2018 TB)                       {source: JPL#26}
Center body name: Earth (399)                     {source: DE441}
Center-site name: Mauna Kea
*******************************************************************************
Start time      : A.D. 2018-Nov-28 03:51:00.0000 UT      
Stop  time      : A.D. 2018-Nov-28 16:28:00.0000 UT      
Step-size       : 1 minutes
*******************************************************************************
Target pole/equ : undefined
Target radii    : undefined                                                    
Center geodetic : 204.5278, 19.8260847, 4.21024   {E-lon(deg),Lat(deg),Alt(km)}
Center cylindric: 204.5278, 6006.35451, 2151.0229 {E-lon(deg),Dxy(km),Dz(km)}
Center pole/equ : ITRF93                          {East-longitude positive}
Center radii    : 6378.137, 6378.137, 6356.752 km {Equator_a, b, pole_c}       
Target primary  : Sun
Vis. interferer : MOON (R_eq= 1737.400) km        {source: DE441}
Rel. light bend : Sun                             {source: DE441}
Rel. lght bnd GM: 1.3271E+11 km^3/s^2                                          
Small-body perts: Yes                             {source: SB441-N16}
Atmos refraction: NO (AIRLESS)
RA format       : HMS
Time format     : CAL 
Calendar mode   : Mixed Julian/Gregorian
RTS-only print  : NO       
EOP file        : eop.250321.p250617                                           
EOP coverage    : DATA-BASED 1962-JAN-20 TO 2025-MAR-21. PREDICTS-> 2025-JUN-16
Units conversion: 1 au= 149597870.700 km, c= 299792.458 km/s, 1 day= 86400.0 s 
Table cut-offs 1: Elevation (-90.0deg=NO ),Airmass (>38.000=NO), Daylight (YES)
Table cut-offs 2: Solar elongation (  0.0,180.0=NO ),Local Hour Angle( 0.0=NO )
Table cut-offs 3: RA/DEC angular rate (     0.0=NO )                           
*******************************************************************************
Initial IAU76/J2000 heliocentric ecliptic osculating elements (au, days, deg.):
  EPOCH=  2458410.5 ! 2018-Oct-19.00 (TDB)         Residual RMS= .12604        
   EC= .5817616216321111   QR= 1.001672821897195   TP= 2458383.1822299529      
   OM= 14.42282174156359   W=  341.1556337077549   IN= 3.61300419916586        
  Equivalent ICRF heliocentric cartesian coordinates (au, au/d):
   X= 9.381709462996228E-01  Y= 4.515017153732180E-01  Z= 2.129237315158303E-01
  VX=-5.799214133182419E-03 VY= 1.778204046057418E-02 VZ= 9.138573561666745E-03
Asteroid physical parameters (km, seconds, rotational period in hours):        
   GM= n.a.                RAD= n.a.               ROTPER= n.a.                
   H= 24.89                G= .150                 B-V= n.a.                   
                           ALBEDO= n.a.            STYP= n.a.                  
*******************************************************************************
 Date__(UT)__HR:MN     R.A._________(ICRF)_________DEC
******************************************************
$$SOE
 2018-Nov-28 03:51 C   03 43 58.324522 +31 09 24.91223
 2018-Nov-28 03:52 C   03 43 58.314539 +31 09 24.70797
 2018-Nov-28 03:53 C   03 43 58.304520 +31 09 24.50368
 2018-Nov-28 03:54 C   03 43 58.294463 +31 09 24.29938
 2018-Nov-28 03:55 C   03 43 58.284370 +31 09 24.09506
 2018-Nov-28 03:56 C   03 43 58.274241 +31 09 23.89072
 2018-Nov-28 03:57 C   03 43 58.264074 +31 09 23.68635
 2018-Nov-28 03:58 C   03 43 58.253871 +31 09 23.48197
 2018-Nov-28 03:59 C   03 43 58.243632 +31 09 23.27756
 2018-Nov-28 04:00 C   03 43 58.233356 +31 09 23.07312
 2018-Nov-28 04:01 C   03 43 58.223043 +31 09 22.86866
 2018-Nov-28 04:02 C   03 43 58.212694 +31 09 22.66417
 2018-Nov-28 04:03 C   03 43 58.202308 +31 09 22.45965
 2018-Nov-28 04:04 C   03 43 58.191886 +31 09 22.25511
 2018-Nov-28 04:05 N   03 43 58.181427 +31 09 22.05053
 2018-Nov-28 04:06 N   03 43 58.170932 +31 09 21.84593
 2018-Nov-28 04:07 N   03 43 58.160400 +31 09 21.64129
 2018-Nov-28 04:08 N   03 43 58.149832 +31 09 21.43661
 2018-Nov-28 04:09 N   03 43 58.139227 +31 09 21.23190
 2018-Nov-28 04:10 N   03 43 58.128586 +31 09 21.02716
 2018-Nov-28 04:11 N   03 43 58.117909 +31 09 20.82238
 2018-Nov-28 04:12 N   03 43 58.107195 +31 09 20.61756
 2018-Nov-28 04:13 N   03 43 58.096445 +31 09 20.41270
 2018-Nov-28 04:14 N   03 43 58.085659 +31 09 20.20780
 2018-Nov-28 04:15 N   03 43 58.074836 +31 09 20.00287
 2018-Nov-28 04:16 N   03 43 58.063977 +31 09 19.79788
 2018-Nov-28 04:17 N   03 43 58.053082 +31 09 19.59286
 2018-Nov-28 04:18 N   03 43 58.042151 +31 09 19.38779
 2018-Nov-28 04:19 N   03 43 58.031184 +31 09 19.18268
 2018-Nov-28 04:20 N   03 43 58.020180 +31 09 18.97752
 2018-Nov-28 04:21 N   03 43 58.009141 +31 09 18.77231
 2018-Nov-28 04:22 N   03 43 57.998065 +31 09 18.56705
 2018-Nov-28 04:23 N   03 43 57.986954 +31 09 18.36174
 2018-Nov-28 04:24 N   03 43 57.975806 +31 09 18.15638
 2018-Nov-28 04:25 N   03 43 57.964622 +31 09 17.95097
 2018-Nov-28 04:26 N   03 43 57.953403 +31 09 17.74551
 2018-Nov-28 04:27 N   03 43 57.942147 +31 09 17.54000
 2018-Nov-28 04:28 N   03 43 57.930856 +31 09 17.33442
 2018-Nov-28 04:29 N   03 43 57.919529 +31 09 17.12880
 2018-Nov-28 04:30 N   03 43 57.908166 +31 09 16.92311
 2018-Nov-28 04:31 N   03 43 57.896768 +31 09 16.71737
 2018-Nov-28 04:32 A   03 43 57.885333 +31 09 16.51156
 2018-Nov-28 04:33 A   03 43 57.873863 +31 09 16.30570
 2018-Nov-28 04:34 A   03 43 57.862358 +31 09 16.09978
 2018-Nov-28 04:35 A   03 43 57.850817 +31 09 15.89379
 2018-Nov-28 04:36 A   03 43 57.839240 +31 09 15.68774
 2018-Nov-28 04:37 A   03 43 57.827628 +31 09 15.48162
 2018-Nov-28 04:38 A   03 43 57.815980 +31 09 15.27544
 2018-Nov-28 04:39 A   03 43 57.804297 +31 09 15.06919
 2018-Nov-28 04:40 A   03 43 57.792578 +31 09 14.86288
 2018-Nov-28 04:41 A   03 43 57.780825 +31 09 14.65649
 2018-Nov-28 04:42 A   03 43 57.769036 +31 09 14.45004
 2018-Nov-28 04:43 A   03 43 57.757211 +31 09 14.24351
 2018-Nov-28 04:44 A   03 43 57.745352 +31 09 14.03692
 2018-Nov-28 04:45 A   03 43 57.733457 +31 09 13.83025
 2018-Nov-28 04:46 A   03 43 57.721528 +31 09 13.62350
 2018-Nov-28 04:47 A   03 43 57.709563 +31 09 13.41668
 2018-Nov-28 04:48 A   03 43 57.697563 +31 09 13.20979
 2018-Nov-28 04:49 A   03 43 57.685528 +31 09 13.00281
 2018-Nov-28 04:50 A   03 43 57.673459 +31 09 12.79576
 2018-Nov-28 04:51 A   03 43 57.661355 +31 09 12.58863
 2018-Nov-28 04:52 A   03 43 57.649215 +31 09 12.38142
 2018-Nov-28 04:53 A   03 43 57.637041 +31 09 12.17413
 2018-Nov-28 04:54 A   03 43 57.624833 +31 09 11.96675
 2018-Nov-28 04:55 A   03 43 57.612590 +31 09 11.75930
 2018-Nov-28 04:56 A   03 43 57.600312 +31 09 11.55175
 2018-Nov-28 04:57 A   03 43 57.588000 +31 09 11.34413
 2018-Nov-28 04:58 A   03 43 57.575653 +31 09 11.13641
 2018-Nov-28 04:59     03 43 57.563272 +31 09 10.92861
 2018-Nov-28 05:00     03 43 57.550856 +31 09 10.72072
 2018-Nov-28 05:01     03 43 57.538407 +31 09 10.51274
 2018-Nov-28 05:02     03 43 57.525923 +31 09 10.30467
 2018-Nov-28 05:03     03 43 57.513405 +31 09 10.09651
 2018-Nov-28 05:04     03 43 57.500852 +31 09 09.88825
 2018-Nov-28 05:05     03 43 57.488266 +31 09 09.67991
 2018-Nov-28 05:06     03 43 57.475646 +31 09 09.47146
 2018-Nov-28 05:07     03 43 57.462992 +31 09 09.26293
 2018-Nov-28 05:08     03 43 57.450304 +31 09 09.05429
 2018-Nov-28 05:09     03 43 57.437582 +31 09 08.84556
 2018-Nov-28 05:10     03 43 57.424826 +31 09 08.63673
 2018-Nov-28 05:11     03 43 57.412037 +31 09 08.42780
 2018-Nov-28 05:12     03 43 57.399214 +31 09 08.21876
 2018-Nov-28 05:13     03 43 57.386358 +31 09 08.00963
 2018-Nov-28 05:14     03 43 57.373468 +31 09 07.80040
 2018-Nov-28 05:15     03 43 57.360545 +31 09 07.59106
 2018-Nov-28 05:16     03 43 57.347589 +31 09 07.38161
 2018-Nov-28 05:17     03 43 57.334599 +31 09 07.17206
 2018-Nov-28 05:18     03 43 57.321576 +31 09 06.96241
 2018-Nov-28 05:19     03 43 57.308520 +31 09 06.75264
 2018-Nov-28 05:20     03 43 57.295431 +31 09 06.54277
 2018-Nov-28 05:21     03 43 57.282309 +31 09 06.33279
 2018-Nov-28 05:22     03 43 57.269154 +31 09 06.12270
 2018-Nov-28 05:23     03 43 57.255966 +31 09 05.91249
 2018-Nov-28 05:24     03 43 57.242746 +31 09 05.70218
 2018-Nov-28 05:25     03 43 57.229493 +31 09 05.49175
 2018-Nov-28 05:26     03 43 57.216207 +31 09 05.28120
 2018-Nov-28 05:27     03 43 57.202889 +31 09 05.07054
 2018-Nov-28 05:28     03 43 57.189538 +31 09 04.85977
 2018-Nov-28 05:29     03 43 57.176155 +31 09 04.64888
 2018-Nov-28 05:30     03 43 57.162739 +31 09 04.43786
 2018-Nov-28 05:31     03 43 57.149292 +31 09 04.22673
 2018-Nov-28 05:32     03 43 57.135812 +31 09 04.01548
 2018-Nov-28 05:33     03 43 57.122300 +31 09 03.80411
 2018-Nov-28 05:34     03 43 57.108756 +31 09 03.59262
 2018-Nov-28 05:35     03 43 57.095181 +31 09 03.38100
 2018-Nov-28 05:36     03 43 57.081573 +31 09 03.16926
 2018-Nov-28 05:37     03 43 57.067934 +31 09 02.95739
 2018-Nov-28 05:38     03 43 57.054263 +31 09 02.74540
 2018-Nov-28 05:39     03 43 57.040561 +31 09 02.53328
 2018-Nov-28 05:40     03 43 57.026827 +31 09 02.32104
 2018-Nov-28 05:41     03 43 57.013061 +31 09 02.10866
 2018-Nov-28 05:42     03 43 56.999265 +31 09 01.89616
 2018-Nov-28 05:43     03 43 56.985437 +31 09 01.68352
 2018-Nov-28 05:44     03 43 56.971578 +31 09 01.47076
 2018-Nov-28 05:45     03 43 56.957688 +31 09 01.25786
 2018-Nov-28 05:46     03 43 56.943767 +31 09 01.04483
 2018-Nov-28 05:47     03 43 56.929815 +31 09 00.83166
 2018-Nov-28 05:48     03 43 56.915832 +31 09 00.61836
 2018-Nov-28 05:49     03 43 56.901818 +31 09 00.40492
 2018-Nov-28 05:50     03 43 56.887774 +31 09 00.19135
 2018-Nov-28 05:51     03 43 56.873700 +31 08 59.97763
 2018-Nov-28 05:52     03 43 56.859595 +31 08 59.76378
 2018-Nov-28 05:53     03 43 56.845459 +31 08 59.54979
